{"type": "FeatureCollection", "features": [ {"type": "Feature", "properties": {"norad_id": 30071, "name": "FENGYUN 1C DEB", "group": "fengyun-1c-debris", "lat": 81.31603527853858, "lon": 2.4109939607936037, "alt_km": 683.8566483509967, "timestamp": "2025-12-22T16:55:17.736714+00:00", "meta": {"OBJECT_NAME": "FENGYUN 1C DEB", "OBJECT_ID": "1999-025PY", "EPOCH": "2025-12-21T06:01:51.625344", "MEAN_MOTION": 14.52283384, "ECCENTRICITY": 0.0038489, "INCLINATION": 98.6589, "RA_OF_ASC_NODE": 94.7787, "ARG_OF_PERICENTER": 84.0002, "MEAN_ANOMALY": 330.2133, "EPHEMERIS_TYPE": 0, "CLASSIFICATION_TYPE": "U", "NORAD_CAT_ID": 30071, "ELEMENT_SET_NO": 999, "REV_AT_EPOCH": 98350, "BSTAR": 0.0016577, "MEAN_MOTION_DOT": 6.759e-05, "MEAN_MOTION_DDOT": 0}, "tle": {"line1": "1 30071U 99025PY  25355.25129196  .00006759  00000+0  16577-2 0  9995", "line2": "2 30071  98.6589  94.7787 0038489  84.0002 330.2133 14.52283384983506"}}, "geometry": {"type": "Point", "coordinates": [2.4109939607936037, 81.31603527853858]}}, {"type": "Feature", "properties": {"norad_id": 30072, "name": "FENGYUN 1C DEB", "group": "fengyun-1c-debris", "lat": -75.90565210095315, "lon": -74.01433526937583, "alt_km": 731.1314015222515, "timestamp": "2025-12-22T16:55:17.736725+00:00", "meta": {"OBJECT_NAME": "FENGYUN 1C DEB", "OBJECT_ID": "1999-025PZ", "EPOCH": "2025-12-22T04:01:40.648512", "MEAN_MOTION": 14.37941272, "ECCENTRICITY": 0.0060115, "INCLINATION": 99.0764, "RA_OF_ASC_NODE": 144.9629, "ARG_OF_PERICENTER": 245.3617, "MEAN_ANOMALY": 114.1299, "EPHEMERIS_TYPE": 0, "CLASSIFICATION_TYPE": "U", "NORAD_CAT_ID": 30072, "ELEMENT_SET_NO": 999, "REV_AT_EPOCH": 97306, "BSTAR": 0.0034188775, "MEAN_MOTION_DOT": 0.00010514, "MEAN_MOTION_DDOT": 0}, "tle": {"line1": "1 30072U 99025PZ  25356.16783158  .00010514  00000+0  34189-2 0  9994", "line2": "2 30072  99.0764 144.9629 0060115 245.3617 114.1299 14.37941272973067"}}, "geometry": {"type": "Point", "coordinates": [-74.01433526937583, -75.90565210095315]}}, {"type": "Feature", "properties": {"norad_id": 30073, "name": "FENGYUN 1C DEB", "group": "fengyun-1c-debris", "lat": -21.23405364179389, "lon": 146.74420129286094, "alt_km": 810.7669081589629, "timestamp": "2025-12-22T16:55:17.736735+00:00", "meta": {"OBJECT_NAME": "FENGYUN 1C DEB", "OBJECT_ID": "1999-025QA", "EPOCH": "2025-12-20T21:55:03.034848", "MEAN_MOTION": 14.18710923, "ECCENTRICITY": 0.0053036, "INCLINATION": 99.4121, "RA_OF_ASC_NODE": 328.5392, "ARG_OF_PERICENTER": 257.5771, "MEAN_ANOMALY": 157.7819, "EPHEMERIS_TYPE": 0, "CLASSIFICATION_TYPE": "U", "NORAD_CAT_ID": 30073, "ELEMENT_SET_NO": 999, "REV_AT_EPOCH": 97041, "BSTAR": 0.00096857, "MEAN_MOTION_DOT": 1.989e-05, "MEAN_MOTION_DDOT": 0}, "tle": {"line1": "1 30073U 99025QA  25354.91322957  .00001989  00000+0  96857-3 0  9999", "line2": "2 30073  99.4121 328.5392 0053036 257.5771 157.7819 14.18710923970419"}}, "geometry": {"type": "Point", "coordinates": [146.74420129286094, -21.23405364179389]}}, {"type": "Feature", "properties": {"norad_id": 30074, "name": "FENGYUN 1C DEB", "group": "fengyun-1c-debris", "lat": 69.88536462040878, "lon": -90.8219254320619, "alt_km": 775.3085796031146, "timestamp": "2025-12-22T16:55:17.736745+00:00", "meta": {"OBJECT_NAME": "FENGYUN 1C DEB", "OBJECT_ID": "1999-025QB", "EPOCH": "2025-12-21T03:01:28.048512", "MEAN_MOTION": 14.12895962, "ECCENTRICITY": 0.00969654, "INCLINATION": 99.1289, "RA_OF_ASC_NODE": 61.526, "ARG_OF_PERICENTER": 128.6907, "MEAN_ANOMALY": 232.2986, "EPHEMERIS_TYPE": 0, "CLASSIFICATION_TYPE": "U", "NORAD_CAT_ID": 30074, "ELEMENT_SET_NO": 999, "REV_AT_EPOCH": 96780, "BSTAR": 0.0010443796, "MEAN_MOTION_DOT": 1.987e-05, "MEAN_MOTION_DDOT": 0}, "tle": {"line1": "1 30074U 99025QB  25355.12601908  .00001987  00000+0  10444-2 0  9995", "line2": "2 30074  99.1289  61.5260 0096965 128.6907 232.2986 14.12895962967801"}}, "geometry": {"type": "Point", "coordinates": [-90.8219254320619, 69.88536462040878]}}, {"type": "Feature", "properties": {"norad_id": 30075, "name": "FENGYUN 1C DEB", "group": "fengyun-1c-debris", "lat": -14.677218671204539, "lon": -135.35491514068147, "alt_km": 876.4337913306099, "timestamp": "2025-12-22T16:55:17.736756+00:00", "meta": {"OBJECT_NAME": "FENGYUN 1C DEB", "OBJECT_ID": "1999-025QC", "EPOCH": "2025-12-21T23:20:00.155328", "MEAN_MOTION": 13.9253688, "ECCENTRICITY": 0.00913688, "INCLINATION": 99.3604, "RA_OF_ASC_NODE": 46.3809, "ARG_OF_PERICENTER": 152.2553, "MEAN_ANOMALY": 329.92, "EPHEMERIS_TYPE": 0, "CLASSIFICATION_TYPE": "U", "NORAD_CAT_ID": 30075, "ELEMENT_SET_NO": 999, "REV_AT_EPOCH": 96193, "BSTAR": 0.00015198369, "MEAN_MOTION_DOT": 1.57e-06, "MEAN_MOTION_DDOT": 0}, "tle": {"line1": "1 30075U 99025QC  25355.97222402  .00000157  00000+0  15198-3 0  9997", "line2": "2 30075  99.3604  46.3809 0091368 152.2553 329.9200 13.92536880961936"}}, "geometry": {"type": "Point", "coordinates": [-135.35491514068147, -14.677218671204539]}}, {"type": "Feature", "properties": {"norad_id": 30076, "name": "FENGYUN 1C DEB", "group": "fengyun-1c-debris", "lat": 26.054833426419314, "lon": -21.426515067948067, "alt_km": 877.7532349771182, "timestamp": "2025-12-22T16:55:17.736767+00:00", "meta": {"OBJECT_NAME": "FENGYUN 1C DEB", "OBJECT_ID": "1999-025QD", "EPOCH": "2025-12-21T21:56:13.652160", "MEAN_MOTION": 13.7629695, "ECCENTRICITY": 0.01757303, "INCLINATION": 99.239, "RA_OF_ASC_NODE": 342.37, "ARG_OF_PERICENTER": 69.7888, "MEAN_ANOMALY": 0.8924, "EPHEMERIS_TYPE": 0, "CLASSIFICATION_TYPE": "U", "NORAD_CAT_ID": 30076, "ELEMENT_SET_NO": 999, "REV_AT_EPOCH": 95020, "BSTAR": 0.00029259756, "MEAN_MOTION_DOT": 2.78e-06, "MEAN_MOTION_DDOT": 0}, "tle": {"line1": "1 30076U 99025QD  25355.91404690  .00000278  00000+0  29260-3 0  9992", "line2": "2 30076  99.2390 342.3700 0175730  69.7888   0.8924 13.76296950950205"}}, "geometry": {"type": "Point", "coordinates": [-21.426515067948067, 26.054833426419314]}}, {"type": "Feature", "properties": {"norad_id": 30077, "name": "FENGYUN 1C DEB", "group": "fengyun-1c-debris", "lat": -25.200910804831, "lon": 16.208301275548187, "alt_km": 877.3960205952062, "timestamp": "2025-12-22T16:55:17.736777+00:00", "meta": {"OBJECT_NAME": "FENGYUN 1C DEB", "OBJECT_ID": "1999-025QE", "EPOCH": "2025-12-22T06:52:37.495776", "MEAN_MOTION": 14.07079953, "ECCENTRICITY": 0.00205742, "INCLINATION": 98.7574, "RA_OF_ASC_NODE": 11.6432, "ARG_OF_PERICENTER": 236.067, "MEAN_ANOMALY": 139.4547, "EPHEMERIS_TYPE": 0, "CLASSIFICATION_TYPE": "U", "NORAD_CAT_ID": 30077, "ELEMENT_SET_NO": 999, "REV_AT_EPOCH": 97247, "BSTAR": 9.95973e-06, "MEAN_MOTION_DOT": -2.6e-07, "MEAN_MOTION_DDOT": 0}, "tle": {"line1": "1 30077U 99025QE  25356.28654509 -.00000026  00000+0  99597-5 0  9994", "line2": "2 30077  98.7574  11.6432 0020574 236.0670 139.4547 14.07079953972475"}}, "geometry": {"type": "Point", "coordinates": [16.208301275548187, -25.200910804831]}}, {"type": "Feature", "properties": {"norad_id": 30078, "name": "FENGYUN 1C DEB", "group": "fengyun-1c-debris", "lat": 76.72864508504064, "lon": 30.36552725140296, "alt_km": 845.2046172748069, "timestamp": "2025-12-22T16:55:17.736788+00:00", "meta": {"OBJECT_NAME": "FENGYUN 1C DEB", "OBJECT_ID": "1999-025QF", "EPOCH": "2025-12-21T20:50:05.322624", "MEAN_MOTION": 14.23184263, "ECCENTRICITY": 0.00532578, "INCLINATION": 98.8321, "RA_OF_ASC_NODE": 70.7652, "ARG_OF_PERICENTER": 253.9149, "MEAN_ANOMALY": 220.5831, "EPHEMERIS_TYPE": 0, "CLASSIFICATION_TYPE": "U", "NORAD_CAT_ID": 30078, "ELEMENT_SET_NO": 999, "REV_AT_EPOCH": 97243, "BSTAR": 0.0012512143, "MEAN_MOTION_DOT": 2.825e-05, "MEAN_MOTION_DDOT": 0}, "tle": {"line1": "1 30078U 99025QF  25355.86811716  .00002825  00000+0  12512-2 0  9990", "line2": "2 30078  98.8321  70.7652 0053257 253.9149 220.5831 14.23184263972433"}}, "geometry": {"type": "Point", "coordinates": [30.36552725140296, 76.72864508504064]}}, {"type": "Feature", "properties": {"norad_id": 30079, "name": "FENGYUN 1C DEB", "group": "fengyun-1c-debris", "lat": 79.51492233076952, "lon": -68.60265790496295, "alt_km": 945.1826434983786, "timestamp": "2025-12-22T16:55:17.736798+00:00", "meta": {"OBJECT_NAME": "FENGYUN 1C DEB", "OBJECT_ID": "1999-025QG", "EPOCH": "2025-12-22T02:53:16.946592", "MEAN_MOTION": 14.00798837, "ECCENTRICITY": 0.00849181, "INCLINATION": 99.0331, "RA_OF_ASC_NODE": 51.5535, "ARG_OF_PERICENTER": 272.5644, "MEAN_ANOMALY": 115.7251, "EPHEMERIS_TYPE": 0, "CLASSIFICATION_TYPE": "U", "NORAD_CAT_ID": 30079, "ELEMENT_SET_NO": 999, "REV_AT_EPOCH": 96669, "BSTAR": 0.00012979294, "MEAN_MOTION_DOT": 1.55e-06, "MEAN_MOTION_DDOT": 0}, "tle": {"line1": "1 30079U 99025QG  25356.12033503  .00000155  00000+0  12979-3 0  9993", "line2": "2 30079  99.0331  51.5535 0084918 272.5644 115.7251 14.00798837966695"}}, "geometry": {"type": "Point", "coordinates": [-68.60265790496295, 79.51492233076952]}}, {"type": "Feature", "properties": {"norad_id": 30080, "name": "FENGYUN 1C DEB", "group": "fengyun-1c-debris", "lat": 18.72006882934903, "lon": 159.8856454731852, "alt_km": 916.0645032274961, "timestamp": "2025-12-22T16:55:17.736809+00:00", "meta": {"OBJECT_NAME": "FENGYUN 1C DEB", "OBJECT_ID": "1999-025QH", "EPOCH": "2025-12-21T21:35:12.607008", "MEAN_MOTION": 14.10831647, "ECCENTRICITY": 0.01335557, "INCLINATION": 98.6993, "RA_OF_ASC_NODE": 336.1314, "ARG_OF_PERICENTER": 34.742, "MEAN_ANOMALY": 355.5722, "EPHEMERIS_TYPE": 0, "CLASSIFICATION_TYPE": "U", "NORAD_CAT_ID": 30080, "ELEMENT_SET_NO": 999, "REV_AT_EPOCH": 97367, "BSTAR": 0.00028238446, "MEAN_MOTION_DOT": 5.08e-06, "MEAN_MOTION_DDOT": 0}, "tle": {"line1": "1 30080U 99025QH  25355.89945147  .00000508  00000+0  28238-3 0  9991", "line2": "2 30080  98.6993 336.1314 0133555  34.7420 355.5722 14.10831647973676"}}, "geometry": {"type": "Point", "coordinates": [159.8856454731852, 18.72006882934903]}}]}